IRIDIUM 7               
1 24793U 97020B   24335.76599532  .00001269  00000+0  43339-3 0  9998
2 24793  86.3957 260.0126 0002526  79.4290 280.7191 14.35633119443429
IRIDIUM 5               
1 24795U 97020D   24336.84932832  .00009953  00000+0  87408-3 0  9997
2 24795  86.3920 174.4686 0116691 124.5454 236.6854 14.91275801456054
IRIDIUM 4               
1 24796U 97020E   24336.15342575  .00001319  00000+0  44281-3 0  9991
2 24796  86.3956 256.8556 0002375  84.8693 275.2775 14.36546981444069
IRIDIUM 914             
1 24836U 97030A   24336.08014368  .00001561  00000+0  48467-3 0  9994
2 24836  86.3928 266.0887 0003315 112.2137 247.9415 14.40497370440703
IRIDIUM 16              
1 24841U 97030F   24336.30104224  .00001580  00000+0  51253-3 0  9994
2 24841  86.4008 288.4216 0003216  42.0420 318.1024 14.38362977438815
IRIDIUM 911             
1 24842U 97030G   24336.32945996  .00002174  00000+0  58977-3 0  9996
2 24842  86.4436 287.3809 0015986  44.2428 316.0050 14.47154069446441
IRIDIUM 17              
1 24870U 97034B   24335.81784067  .00001462  00000+0  48259-3 0  9995
2 24870  86.3932 318.1992 0001381  42.8627 317.2678 14.37462376435086
IRIDIUM 920             
1 24871U 97034C   24336.78688751  .00001730  00000+0  53030-3 0  9997
2 24871  86.3947 297.4629 0012472  23.8039 336.3735 14.41170724438401
