<?xml version="1.0" encoding="UTF-8"?>
<ndm xmlns:xsi="http://www.w3.org/2001/XMLSchema-instance" xsi:noNamespaceSchemaLocation="https://sanaregistry.org/r/ndmxml_unqualified/ndmxml-2.0.0-master-2.0.xsd">
<omm id="CCSDS_OMM_VERS" version="2.0">
<header><CREATION_DATE/><ORIGINATOR/></header><body><segment><metadata><OBJECT_NAME>IRIDIUM 7</OBJECT_NAME><OBJECT_ID>1997-020B</OBJECT_ID><CENTER_NAME>EARTH</CENTER_NAME><REF_FRAME>TEME</REF_FRAME><TIME_SYSTEM>UTC</TIME_SYSTEM><MEAN_ELEMENT_THEORY>SGP4</MEAN_ELEMENT_THEORY></metadata><data><meanElements><EPOCH>2024-11-30T18:23:01.995648</EPOCH><MEAN_MOTION>14.35633119</MEAN_MOTION><ECCENTRICITY>.0002526</ECCENTRICITY><INCLINATION>86.3957</INCLINATION><RA_OF_ASC_NODE>260.0126</RA_OF_ASC_NODE><ARG_OF_PERICENTER>79.4290</ARG_OF_PERICENTER><MEAN_ANOMALY>280.7191</MEAN_ANOMALY></meanElements><tleParameters><EPHEMERIS_TYPE>0</EPHEMERIS_TYPE><CLASSIFICATION_TYPE>U</CLASSIFICATION_TYPE><NORAD_CAT_ID>24793</NORAD_CAT_ID><ELEMENT_SET_NO>999</ELEMENT_SET_NO><REV_AT_EPOCH>44342</REV_AT_EPOCH><BSTAR>.43339E-3</BSTAR><MEAN_MOTION_DOT>.1269E-4</MEAN_MOTION_DOT><MEAN_MOTION_DDOT>0</MEAN_MOTION_DDOT></tleParameters></data></segment></body></omm>
<omm id="CCSDS_OMM_VERS" version="2.0">
<header><CREATION_DATE/><ORIGINATOR/></header><body><segment><metadata><OBJECT_NAME>IRIDIUM 5</OBJECT_NAME><OBJECT_ID>1997-020D</OBJECT_ID><CENTER_NAME>EARTH</CENTER_NAME><REF_FRAME>TEME</REF_FRAME><TIME_SYSTEM>UTC</TIME_SYSTEM><MEAN_ELEMENT_THEORY>SGP4</MEAN_ELEMENT_THEORY></metadata><data><meanElements><EPOCH>2024-12-01T20:23:01.966848</EPOCH><MEAN_MOTION>14.91275801</MEAN_MOTION><ECCENTRICITY>.0116691</ECCENTRICITY><INCLINATION>86.3920</INCLINATION><RA_OF_ASC_NODE>174.4686</RA_OF_ASC_NODE><ARG_OF_PERICENTER>124.5454</ARG_OF_PERICENTER><MEAN_ANOMALY>236.6854</MEAN_ANOMALY></meanElements><tleParameters><EPHEMERIS_TYPE>0</EPHEMERIS_TYPE><CLASSIFICATION_TYPE>U</CLASSIFICATION_TYPE><NORAD_CAT_ID>24795</NORAD_CAT_ID><ELEMENT_SET_NO>999</ELEMENT_SET_NO><REV_AT_EPOCH>45605</REV_AT_EPOCH><BSTAR>.87408E-3</BSTAR><MEAN_MOTION_DOT>.9953E-4</MEAN_MOTION_DOT><MEAN_MOTION_DDOT>0</MEAN_MOTION_DDOT></tleParameters></data></segment></body></omm>
<omm id="CCSDS_OMM_VERS" version="2.0">
<header><CREATION_DATE/><ORIGINATOR/></header><body><segment><metadata><OBJECT_NAME>IRIDIUM 4</OBJECT_NAME><OBJECT_ID>1997-020E</OBJECT_ID><CENTER_NAME>EARTH</CENTER_NAME><REF_FRAME>TEME</REF_FRAME><TIME_SYSTEM>UTC</TIME_SYSTEM><MEAN_ELEMENT_THEORY>SGP4</MEAN_ELEMENT_THEORY></metadata><data><meanElements><EPOCH>2024-12-01T03:40:55.984800</EPOCH><MEAN_MOTION>14.36546981</MEAN_MOTION><ECCENTRICITY>.0002375</ECCENTRICITY><INCLINATION>86.3956</INCLINATION><RA_OF_ASC_NODE>256.8556</RA_OF_ASC_NODE><ARG_OF_PERICENTER>84.8693</ARG_OF_PERICENTER><MEAN_ANOMALY>275.2775</MEAN_ANOMALY></meanElements><tleParameters><EPHEMERIS_TYPE>0</EPHEMERIS_TYPE><CLASSIFICATION_TYPE>U</CLASSIFICATION_TYPE><NORAD_CAT_ID>24796</NORAD_CAT_ID><ELEMENT_SET_NO>999</ELEMENT_SET_NO><REV_AT_EPOCH>44406</REV_AT_EPOCH><BSTAR>.44281E-3</BSTAR><MEAN_MOTION_DOT>.1319E-4</MEAN_MOTION_DOT><MEAN_MOTION_DDOT>0</MEAN_MOTION_DDOT></tleParameters></data></segment></body></omm>
<omm id="CCSDS_OMM_VERS" version="2.0">
<header><CREATION_DATE/><ORIGINATOR/></header><body><segment><metadata><OBJECT_NAME>IRIDIUM 914</OBJECT_NAME><OBJECT_ID>1997-030A</OBJECT_ID><CENTER_NAME>EARTH</CENTER_NAME><REF_FRAME>TEME</REF_FRAME><TIME_SYSTEM>UTC</TIME_SYSTEM><MEAN_ELEMENT_THEORY>SGP4</MEAN_ELEMENT_THEORY></metadata><data><meanElements><EPOCH>2024-12-01T01:55:24.413952</EPOCH><MEAN_MOTION>14.40497370</MEAN_MOTION><ECCENTRICITY>.0003315</ECCENTRICITY><INCLINATION>86.3928</INCLINATION><RA_OF_ASC_NODE>266.0887</RA_OF_ASC_NODE><ARG_OF_PERICENTER>112.2137</ARG_OF_PERICENTER><MEAN_ANOMALY>247.9415</MEAN_ANOMALY></meanElements><tleParameters><EPHEMERIS_TYPE>0</EPHEMERIS_TYPE><CLASSIFICATION_TYPE>U</CLASSIFICATION_TYPE><NORAD_CAT_ID>24836</NORAD_CAT_ID><ELEMENT_SET_NO>999</ELEMENT_SET_NO><REV_AT_EPOCH>44070</REV_AT_EPOCH><BSTAR>.48467E-3</BSTAR><MEAN_MOTION_DOT>.1561E-4</MEAN_MOTION_DOT><MEAN_MOTION_DDOT>0</MEAN_MOTION_DDOT></tleParameters></data></segment></body></omm>
<omm id="CCSDS_OMM_VERS" version="2.0">
<header><CREATION_DATE/><ORIGINATOR/></header><body><segment><metadata><OBJECT_NAME>IRIDIUM 16</OBJECT_NAME><OBJECT_ID>1997-030F</OBJECT_ID><CENTER_NAME>EARTH</CENTER_NAME><REF_FRAME>TEME</REF_FRAME><TIME_SYSTEM>UTC</TIME_SYSTEM><MEAN_ELEMENT_THEORY>SGP4</MEAN_ELEMENT_THEORY></metadata><data><meanElements><EPOCH>2024-12-01T07:13:30.049536</EPOCH><MEAN_MOTION>14.38362977</MEAN_MOTION><ECCENTRICITY>.0003216</ECCENTRICITY><INCLINATION>86.4008</INCLINATION><RA_OF_ASC_NODE>288.4216</RA_OF_ASC_NODE><ARG_OF_PERICENTER>42.0420</ARG_OF_PERICENTER><MEAN_ANOMALY>318.1024</MEAN_ANOMALY></meanElements><tleParameters><EPHEMERIS_TYPE>0</EPHEMERIS_TYPE><CLASSIFICATION_TYPE>U</CLASSIFICATION_TYPE><NORAD_CAT_ID>24841</NORAD_CAT_ID><ELEMENT_SET_NO>999</ELEMENT_SET_NO><REV_AT_EPOCH>43881</REV_AT_EPOCH><BSTAR>.51253E-3</BSTAR><MEAN_MOTION_DOT>.158E-4</MEAN_MOTION_DOT><MEAN_MOTION_DDOT>0</MEAN_MOTION_DDOT></tleParameters></data></segment></body></omm>
<omm id="CCSDS_OMM_VERS" version="2.0">
<header><CREATION_DATE/><ORIGINATOR/></header><body><segment><metadata><OBJECT_NAME>IRIDIUM 911</OBJECT_NAME><OBJECT_ID>1997-030G</OBJECT_ID><CENTER_NAME>EARTH</CENTER_NAME><REF_FRAME>TEME</REF_FRAME><TIME_SYSTEM>UTC</TIME_SYSTEM><MEAN_ELEMENT_THEORY>SGP4</MEAN_ELEMENT_THEORY></metadata><data><meanElements><EPOCH>2024-12-01T07:54:25.340544</EPOCH><MEAN_MOTION>14.47154069</MEAN_MOTION><ECCENTRICITY>.0015986</ECCENTRICITY><INCLINATION>86.4436</INCLINATION><RA_OF_ASC_NODE>287.3809</RA_OF_ASC_NODE><ARG_OF_PERICENTER>44.2428</ARG_OF_PERICENTER><MEAN_ANOMALY>316.0050</MEAN_ANOMALY></meanElements><tleParameters><EPHEMERIS_TYPE>0</EPHEMERIS_TYPE><CLASSIFICATION_TYPE>U</CLASSIFICATION_TYPE><NORAD_CAT_ID>24842</NORAD_CAT_ID><ELEMENT_SET_NO>999</ELEMENT_SET_NO><REV_AT_EPOCH>44644</REV_AT_EPOCH><BSTAR>.58977E-3</BSTAR><MEAN_MOTION_DOT>.2174E-4</MEAN_MOTION_DOT><MEAN_MOTION_DDOT>0</MEAN_MOTION_DDOT></tleParameters></data></segment></body></omm>
<omm id="CCSDS_OMM_VERS" version="2.0">
<header><CREATION_DATE/><ORIGINATOR/></header><body><segment><metadata><OBJECT_NAME>IRIDIUM 17</OBJECT_NAME><OBJECT_ID>1997-034B</OBJECT_ID><CENTER_NAME>EARTH</CENTER_NAME><REF_FRAME>TEME</REF_FRAME><TIME_SYSTEM>UTC</TIME_SYSTEM><MEAN_ELEMENT_THEORY>SGP4</MEAN_ELEMENT_THEORY></metadata><data><meanElements><EPOCH>2024-11-30T19:37:41.433888</EPOCH><MEAN_MOTION>14.37462376</MEAN_MOTION><ECCENTRICITY>.0001381</ECCENTRICITY><INCLINATION>86.3932</INCLINATION><RA_OF_ASC_NODE>318.1992</RA_OF_ASC_NODE><ARG_OF_PERICENTER>42.8627</ARG_OF_PERICENTER><MEAN_ANOMALY>317.2678</MEAN_ANOMALY></meanElements><tleParameters><EPHEMERIS_TYPE>0</EPHEMERIS_TYPE><CLASSIFICATION_TYPE>U</CLASSIFICATION_TYPE><NORAD_CAT_ID>24870</NORAD_CAT_ID><ELEMENT_SET_NO>999</ELEMENT_SET_NO><REV_AT_EPOCH>43508</REV_AT_EPOCH><BSTAR>.48259E-3</BSTAR><MEAN_MOTION_DOT>.1462E-4</MEAN_MOTION_DOT><MEAN_MOTION_DDOT>0</MEAN_MOTION_DDOT></tleParameters></data></segment></body></omm>
<omm id="CCSDS_OMM_VERS" version="2.0">
<header><CREATION_DATE/><ORIGINATOR/></header><body><segment><metadata><OBJECT_NAME>IRIDIUM 920</OBJECT_NAME><OBJECT_ID>1997-034C</OBJECT_ID><CENTER_NAME>EARTH</CENTER_NAME><REF_FRAME>TEME</REF_FRAME><TIME_SYSTEM>UTC</TIME_SYSTEM><MEAN_ELEMENT_THEORY>SGP4</MEAN_ELEMENT_THEORY></metadata><data><meanElements><EPOCH>2024-12-01T18:53:07.080864</EPOCH><MEAN_MOTION>14.41170724</MEAN_MOTION><ECCENTRICITY>.0012472</ECCENTRICITY><INCLINATION>86.3947</INCLINATION><RA_OF_ASC_NODE>297.4629</RA_OF_ASC_NODE><ARG_OF_PERICENTER>23.8039</ARG_OF_PERICENTER><MEAN_ANOMALY>336.3735</MEAN_ANOMALY></meanElements><tleParameters><EPHEMERIS_TYPE>0</EPHEMERIS_TYPE><CLASSIFICATION_TYPE>U</CLASSIFICATION_TYPE><NORAD_CAT_ID>24871</NORAD_CAT_ID><ELEMENT_SET_NO>999</ELEMENT_SET_NO><REV_AT_EPOCH>43840</REV_AT_EPOCH><BSTAR>.5303E-3</BSTAR><MEAN_MOTION_DOT>.173E-4</MEAN_MOTION_DOT><MEAN_MOTION_DDOT>0</MEAN_MOTION_DDOT></tleParameters></data></segment></body></omm>

</ndm>
